HORYU-4                 
1 41340U 16012D   20085.46958577  .00000483  00000-0  29852-4 0  9993
2 41340  31.0044 146.6043 0013977  34.9195 325.2355 15.01446823225242
E-ST@R-II               
1 41459U 16025D   20086.02896211  .00003299  00000-0  16805-3 0  9998
2 41459  98.0962 191.7303 0166972 132.3465 229.2004 15.06205420214885
AAUSAT 4                
1 41460U 16025E   20086.22477416  .00003999  00000-0  19739-3 0  9990
2 41460  98.0951 193.9793 0156068 121.5696 240.0872 15.08419641215095
DIWATA-1                
1 41463U 98067HT  20085.91741035  .00414694  10772-3  27174-3 0  9995
2 41463  51.6189 205.2186 0006588 330.7964 132.7756 16.16550741224558
BEESAT-4                
1 41619U 16040W   20084.72031317  .00001266  00000-0  55400-4 0  9993
2 41619  97.3295 146.2261 0012769 115.2750 244.9812 15.23785084196498
CANX-7                  
1 41788U 16059F   20085.81836399  .00007307  00000-0  10303-2 0  9997
2 41788  98.2504 171.6288 0031589 194.4532 165.5774 14.77211071187467
RAVAN                   
1 41849U 16067B   20085.80853289 -.00000269  00000-0 -17318-4 0  9997
2 41849  97.9256 194.2879 0008557 155.2578 204.9056 14.98486684184090
CELTEE 1                
1 41850U 16067C   20085.79458473 -.00000094  00000-0 -28561-5 0  9992
2 41850  97.9203 192.2426 0009176 157.4297 202.7329 14.97145287183986
OPTICUBE 04             
1 41851U 16067D   20085.77770776  .00000718  00000-0  67799-4 0  9990
2 41851  97.9189 191.8885 0009500 159.2449 200.9159 14.96897922183962
AEROCUBE 8D             
1 41852U 16067E   20085.85935267 -.00000001  00000-0  52180-5 0  9993
2 41852  97.9200 191.8026 0010005 160.4410 199.7197 14.96866911183958
AEROCUBE 8C             
1 41853U 16067F   20085.82211019  .00000238  00000-0  26056-4 0  9996
2 41853  97.9185 191.6772 0010508 164.2705 195.8844 14.96823748183940
PROMETHEUS 2-1          
1 41854U 16067G   20085.80888964 -.00000055  00000-0  56062-6 0  9994
2 41854  97.9199 191.9415 0010602 163.7714 196.3849 14.97120087183951
PROMETHEUS 2-3          
1 41855U 16067H   20085.80988647 -.00000014  00000-0  40636-5 0  9998
2 41855  97.9201 191.9709 0010787 164.2894 195.8664 14.97129719183951
INS-1B                  
1 41954U 17008G   20085.14388334  .00001171  00000-0  50393-4 0  9992
2 41954  97.3631 151.0261 0007749 231.1177 128.9370 15.24567472172529
BGUSAT                  
1 41999U 17008BD  20085.15419026  .00001891  00000-0  73778-4 0  9996
2 41999  97.3732 154.7235 0006507 240.7948 119.2640 15.27146620172089
DIDO-2                  
1 42000U 17008BE  20085.15742167  .00000721  00000-0  32329-4 0  9993
2 42000  97.3639 151.5712 0006835 253.7370 106.3116 15.24337061171926
PEASSS                  
1 42015U 17008BV  20085.13077721  .00001003  00000-0  42497-4 0  9995
2 42015  97.3658 152.9797 0004680 257.1820 102.8895 15.25424455172498
AL-FARABI 1             
1 42016U 17008BW  20085.19699923  .00001428  00000-0  57960-4 0  9998
2 42016  97.3685 153.9557 0004549 255.1645 104.9090 15.26211640172672
NAYIF-1 (EO-88)         
1 42017U 17008BX  20085.17792478  .00001452  00000-0  58850-4 0  9992
2 42017  97.3679 153.9482 0004588 254.9677 105.1054 15.26250201172699
NSIGHT                  
1 42726U 98067MF  20085.82071833  .00146930  19971-4  32014-3 0  9995
2 42726  51.6262 292.4389 0005737 229.6171 130.4337 15.97933105162263
UCLSAT                  
1 42765U 17036A   20085.21390984  .00001156  00000-0  51543-4 0  9997
2 42765  97.3116 141.6785 0010301 330.6223  29.4433 15.23331894153169
LITUANICASAT-2          
1 42768U 17036D   20085.15197085  .00001740  00000-0  75145-4 0  9993
2 42768  97.3165 141.4695 0013335 317.8839  42.1373 15.23743682153004
AALTO-1                 
1 42775U 17036L   20085.15520726  .00000692  00000-0  33511-4 0  9999
2 42775  97.3095 139.6714 0012674 321.3623  38.6705 15.21715289152852
URSA MAIOR              
1 42776U 17036M   20085.87754105  .00000762  00000-0  36453-4 0  9995
2 42776  97.3105 140.6227 0012418 318.4638  41.5654 15.21885441152972
COMPASS 2               
1 42777U 17036N   20085.16780841  .00001526  00000-0  66489-4 0  9995
2 42777  97.3159 141.9304 0011025 320.2937  39.7493 15.23660280152961
DIAMOND RED             
1 42783U 17036U   20085.43398989  .00000904  00000-0  41712-4 0  9991
2 42783  97.3117 141.2452 0011002 331.2969  28.7661 15.22675091152961
PEGASUS                 
1 42784U 17036V   20086.14207652  .00001018  00000-0  46144-4 0  9998
2 42784  97.3119 142.3049 0010800 327.5768  32.4805 15.23034510153091
DIAMOND GREEN           
1 42785U 17036W   20085.03846794  .00000777  00000-0  36293-4 0  9997
2 42785  97.3120 140.8930 0010961 333.5367  26.5309 15.22673456152893
DIAMOND BLUE            
1 42786U 17036X   20085.10342353  .00000842  00000-0  39055-4 0  9990
2 42786  97.3119 140.9521 0010799 333.6612  26.4075 15.22673983152908
NUDTSAT                 
1 42787U 17036Y   20085.21788964  .00001429  00000-0  61349-4 0  9998
2 42787  97.3166 142.6123 0011250 330.2598  29.8002 15.24249320152865
SUCHAI                  
1 42788U 17036Z   20084.88191829  .00001185  00000-0  52439-4 0  9998
2 42788  97.3129 141.5903 0010414 331.0924  28.9735 15.23545711153004
SKCUBE                  
1 42789U 17036AA  20077.16879164  .00001121  00000-0  49980-4 0  9994
2 42789  97.3140 133.9507 0011090   0.0060   0.1175 15.23383460151748
VZLUSAT-1               
1 42790U 17036AB  20077.39404437  .00001466  00000-0  62934-4 0  9994
2 42790  97.3162 134.9721 0010502 357.6652   2.4535 15.24215401151822
ROBUSTA-1B              
1 42792U 17036AD  20086.13161793  .00001152  00000-0  50990-4 0  9994
2 42792  97.3123 142.9112 0009780 327.5061  32.5574 15.23592076153138
CICERO 6                
1 42793U 17036AE  20086.15022552  .00000795  00000-0  36724-4 0  9997
2 42793  97.3102 142.4395 0009193 330.7047  29.3674 15.22999592153185
D-SAT                   
1 42794U 17036AF  20085.63518442  .00000259  00000-0  28122-4 0  9996
2 42794  97.5041 122.3959 0124675 284.9335  73.8108 14.91239010150209
CORVUS BC2              
1 42846U 17042X   20085.74783770  .00000140  00000-0  19049-4 0  9998
2 42846  97.5350 333.0231 0009195 188.3464 171.7604 14.92074583146929
CORVUS BC1              
1 42847U 17042Y   20085.74919938  .00000164  00000-0  21290-4 0  9993
2 42847  97.5352 333.1788 0008867 187.2032 172.9062 14.92175616146924
MIRATA                  
1 43015U 17073C   20085.74810685  .00001268  00000-0  10392-3 0  9990
2 43015  97.7219   1.1389 0252999 321.9285  36.4281 14.79508072126846
MAKERSAT 0              
1 43016U 17073D   20085.75359554  .00000898  00000-0  75400-4 0  9995
2 43016  97.7254   1.3379 0255600 322.7557  35.6162 14.79114461126822
ASTERIA                 
1 43020U 98067NH  20086.09961454  .00188412  25458-4  41939-3 0  9994
2 43020  51.6416 303.8120 0003492 265.1782  94.8828 15.97478069134328
DELLINGR (RBLE)         
1 43021U 98067NJ  20086.09755701  .00012348  00000-0  11172-3 0  9993
2 43021  51.6375 345.1719 0002527 107.4029 252.7244 15.68526798133772
AEROCUBE 7B (OCSD B)    
1 43042U 17071F   20083.76333037  .00003139  00000-0  79410-4 0  9995
2 43042  51.6367 126.8567 0004945  90.1872 269.9681 15.42976539129146
AEROCUBE 7C (OCSD C)    
1 43043U 17071G   20085.38450740  .00002898  00000-0  74068-4 0  9992
2 43043  51.6365 118.9466 0005154  99.3123 260.8445 15.42963908129366
CHEFSAT                 
1 43044U 17071H   20085.23044434  .00005709  00000-0  11914-3 0  9990
2 43044  51.6370 107.6517 0004808  98.8572 261.2961 15.47104894129502
ASGARDIA 1              
1 43049U 17071N   20085.38108299  .00002888  00000-0  73651-4 0  9993
2 43049  51.6380 118.2365 0002729 110.0877 250.0403 15.43040304129364
ISARA                   
1 43050U 17071P   20085.22712198  .00005300  00000-0  11429-3 0  9993
2 43050  51.6354 109.7810 0002560 104.1855 255.9417 15.46297863129467
PROPCUBE 2 (FAUNA)      
1 43052U 17071R   20085.19653359  .00002622  00000-0  66856-4 0  9993
2 43052  51.6370 117.7729 0002699 106.0074 254.1210 15.43442438129359
CORVUS BC3              
1 43118U 18004H   20085.14817489  .00000672  00000-0  31370-4 0  9990
2 43118  97.4512 156.0835 0010092 358.0603   2.0593 15.23234484122169
MICROMAS-2A             
1 43131U 18004W   20084.88049091  .00001607  00000-0  67316-4 0  9999
2 43131  97.4553 157.2619 0008881 359.7301   0.3930 15.24987512122207
SPACEBEE-4              
1 43139U 18004AE  20083.73662120  .00002736  00000-0  10873-3 0  9993
2 43139  97.4588 157.1069 0008274   5.9897 354.1438 15.26145791122072
SPACEBEE-3              
1 43140U 18004AF  20084.77712027  .00002839  00000-0  11007-3 0  9996
2 43140  97.4597 158.7045 0007787   1.3937 358.7322 15.26944466122278
SPACEBEE-2              
1 43141U 18004AG  20085.16583355  .00002831  00000-0  10889-3 0  9990
2 43141  97.4611 159.3004 0007669 359.3600   0.7628 15.27217849122340
SPACEBEE-1              
1 43142U 18004AH  20086.13466440  .00003473  00000-0  13167-3 0  9999
2 43142  97.4609 160.4829 0007515 355.4267   4.6902 15.27537023122495
CICERO 7                
1 43143U 18004AJ  20086.13133488  .00001662  00000-0  69360-4 0  9998
2 43143  97.4533 158.7050 0007305   7.2479 352.8862 15.25061952122418
GOMX-4B                 
1 43196U 18015E   20085.51708608  .00000467  00000-0  22034-4 0  9990
2 43196  97.4222 214.7687 0019908  42.8249 317.4534 15.24181130119118
GOMX-4A                 
1 43197U 18015F   20085.88977059  .00000812  00000-0  35946-4 0  9999
2 43197  97.4225 215.2032 0020314  43.1987  72.9085 15.24378158119187
1KUNS-PF                
1 43466U 98067NP  20086.07705024  .00079224  00000-0  32513-3 0  9995
2 43466  51.6305 331.2612 0003331 179.7695 180.3311 15.85303324107219
UBAKUSAT                
1 43467U 98067NQ  20086.02420399  .00022756  00000-0  17978-3 0  9996
2 43467  51.6352 349.8457 0002205 100.4300 259.6947 15.71281375106970
